FENGYUN 1C DEB          
1 31442U 99025BUE 17345.00304436  .00000145  00000-0  73177-4 0  9998
2 31442  98.6596  67.3662 0085243 321.6268  37.8869 14.28395032555800
